BRITE-PL2 (HEWELIUSZ)   
1 40119U 14049B   26068.87400651  .00002742  00000+0  26097-3 0  9997
2 40119  97.8982 180.2053 0015445  80.5248 279.7716 14.94186201626611
STARLINK-5459           
1 55669U 23021AT  26068.68533530 -.00000655  00000+0 -47051-4 0  9992
2 55669  70.0008 164.4772 0003433 272.8333  87.2433 14.98337361169277
